#dP2024  3  6  0  0  0.00000000      96 __u+U IGS20 FIT  IAC
## 2304 259200.00000000   900.00000000 60375 0.0000000000000
+  128   C01C02C03C04C05C06C07C08C09C10C11C12C13C14C16C19C20
+        C21C22C23C24C25C26C27C28C29C30C32C33C34C35C36C37C38
+        C39C40C41C42C43C44C45C46C60E02E03E04E05E07E08E09E10
+        E11E12E13E14E15E18E19E21E24E25E26E27E30E31E33E34E36
+        G01G02G03G04G05G06G07G08G09G10G11G12G13G14G15G16G17
+        G18G19G20G21G22G23G24G25G26G27G28G29G30G31G32J02J03
+        J04J07R01R02R03R04R05R06R07R08R09R10R11R12R13R14R15
+        R16R17R18R19R20R21R22R23R24  0  0  0  0  0  0  0  0
++        17 16  0 17 16  9  9 10  9  9  9  8  9  9  9  8  7
++         7  7  7  7  7  7  7  7  7  7  7  7  7 12  8  7  8
++         9  9  7  7  7  7  7  7 17  5  4  4  4  5  5  4  5
++         4  5  4  5  4  5  5  4  4  4  5  4  5  4  5  4  4
++         4  4  4  4  4  4  4  4  4  4  4  4  4  4  4  4  4
++         4  4  4  4  4  4  4  4  4  4  4  4  4  4  4 11 11
++        11 17  7  6  6  6  6 15  6  6  6 15  6  6  8  6  6
++         6  6  6  7  8  6  6 15  6  0  0  0  0  0  0  0  0
%c M  cc GPS ccc cccc cccc cccc cccc ccccc ccccc ccccc ccccc
%c cc cc ccc ccc cccc cccc cccc cccc ccccc ccccc ccccc ccccc
%f  0.0000000  0.000000000  0.00000000000  0.000000000000000
%f  0.0000000  0.000000000  0.00000000000  0.000000000000000
%i    0    0    0    0      0      0      0      0         0
%i    0    0    0    0      0      0      0      0         0
/* INFORMATION & ANALYSIS CENTER (IAC)            RAPID DATA
/* S/V CLOCKS ARE ALIGNED TO GNSS TIME                      
/* G:C1WC2W R:C1PC2P E:C1XC5X C:C2IC6I J:C1CC2S             
/* PCV:IGS20_2290 OL/AL:FES2004  NONE     YN ORB:CoN CLK:CoN
*  2024 03 06  9 45  0.00000000
PC01 -34306.884449  24528.062072    457.084612    886.811451
PC02   4379.958023  41874.317243  -1235.638050    487.333682
PC03      0.000000      0.000000      0.000000 999999.999999
PC04 -39635.105591  14422.323884    805.150391    783.372652
PC05  21789.408900  36045.010651  -1175.130282   -835.194383
PC06  -2160.798486  27708.319870 -31583.290843    254.348487
PC07 -17514.303848  31358.551644  22005.483467   -911.255810
PC08  -9154.862361  40647.612038   7139.542759    -14.881977
PC09   5105.478556  30965.792958 -27401.184112   -582.793246
PC10  -9108.333727  31407.192446  26676.350307     56.868318
PC11  22040.141396  14933.645451   8438.530227    445.609633
PC12   4677.606100  17195.779440  21510.614258   -207.247017
PC13  -3734.628696  42137.703376   -616.109064    422.833889
PC14  12877.497733   9453.341502 -22868.185302    342.886919
PC16  -5317.350334  25305.639816 -32953.325729   -379.867981
PC19 -19559.888536  -1091.053920  19893.035970   -921.238601
PC20  -5589.436391 -15308.104310  22673.994625   -229.359884
PC21 -13130.709515  21529.608156 -11900.762477   -961.420205
PC22 -23132.862236  14594.120454   5462.870701    -84.943030
PC23  14830.809205  -8141.593948  22188.030073   -777.465933
PC24   8013.992667  26365.316084   4466.667419    946.519778
PC25  16460.708239  12035.336262  19044.958037    342.709713
PC26  -3885.442944  24840.231788 -12165.644938   -258.837228
PC27   5232.932731 -15131.584171 -22876.377272    280.771956
PC28  20994.658028  -5337.467164 -17586.277139    213.967847
PC29 -26507.106353  -8736.456733   -103.129446    250.866696
PC30 -14330.927160 -17101.493066 -16785.793223    -34.182781
PC32  13019.672358 -21668.463080  11860.011932   -578.342367
PC33  19553.720164   1009.385460 -19883.134650   -954.834675
PC34  15761.918015  16831.784978  15685.111643    384.088428
PC35 -20946.693373   6052.538099  17426.425382    417.738022
PC36 -16104.272722 -12799.517952 -18837.893159      8.803482
PC37   4710.033036 -24499.035782  12481.937074   -941.854418
PC38 -12925.278372  37493.516538  14556.200077    141.017891
PC39 -10721.311935  21719.629197 -34438.284880     -7.443485
PC40 -24856.097626  25518.703188  22332.048713    -59.520955
PC41  23214.429299 -14195.985095  -6169.672858   -900.987090
PC42   4089.724864  16303.436632 -22222.140598   -448.921668
PC43  26267.160352   9328.744211    979.286827     63.060390
PC44  -4932.938876  15366.075701  22750.514357    404.933769
PC45 -14686.174666   8273.143202 -22252.128382    -74.111955
PC46  -8473.487916 -26019.701319  -5373.863312   -129.368271
PC60   7283.397333  41528.623550    143.312464     -0.379928
PE02   7180.791791 -27891.705510  -6799.013715    108.939988
PE03   4647.710641 -17180.805814  23654.577817    -98.376102
PE04  17558.595561  12311.189807 -20392.293225   -343.157716
PE05  23748.364964 -11929.579221  13042.733899   4726.455376
PE07 -29043.234876   -621.384320   5668.330791   -107.386716
PE08 -16834.442125 -12540.384889  20869.397545   -234.531440
PE09  29028.994186    637.718814  -5780.399618   -360.471903
PE10  21333.028729  17934.700099  -9969.081344   -607.164231
PE11  21369.426349   8804.225510 -18487.897086   3197.077493
PE12  18059.382156  23417.399486   -914.842142   -936.128642
PE13 -21461.955919  -9483.897275  18059.615444    -20.425993
PE14  31272.887490  -1074.168501   1638.725798     58.605442
PE15 -17829.448929 -23635.937014    367.990805    -89.640753
PE18 -23349.445562  -4874.695494  -7473.779724    403.877878
PE19  -7235.462241  16910.902497 -23180.347274   -485.504595
PE21 -17609.258022  21027.380874 -11148.649525   -582.504129
PE24  18156.703747  -1046.796690  23326.553853   -635.771235
PE25  17728.966991 -20730.276769  11480.137978      1.760213
PE26 -12188.983726  10655.623965  24786.177530    388.413908
PE27 -18232.565913   1558.005128 -23275.006277   -291.734509
PE30  -7957.631437 -18811.700074 -21435.339606    -66.392846
PE31   8093.535413  18620.757089  21539.670271    -17.591507
PE33   3320.922882  23510.997897  17676.800939      8.610429
PE34  -3835.616816 -23724.252848 -17283.517103    -98.418017
PE36  12483.902385  -9991.246860 -24905.364026   -195.368217
PG01 -18813.764625  -6110.920933  17549.270885    172.567150
PG02 -21342.507844 -12098.560163  10993.890987   -474.761073
PG03 -15003.432682  -1573.528426  21704.118109    235.329682
PG04 -25490.268160  -2541.370307   7293.112724    308.227208
PG05   9214.652642  15029.147429 -20009.094966   -164.355618
PG06   1385.380865  20379.812037  16979.791374    379.643375
PG07 -14700.529698   5485.189383 -20989.257842    -77.866127
PG08 -21126.226002  -7121.880857 -14851.519115     34.582570
PG09 -24734.197881   7992.857292  -5685.273094    115.061893
PG10  10510.161055 -24177.603984   -821.669028      0.652512
PG11  10760.911212  23393.224526   6636.922926   -597.965994
PG12  14935.018058   3407.919856  21404.980663   -484.536643
PG13  12787.577489  13322.891492 -19374.866221    631.674443
PG14 -13448.938200  22313.316423  -4582.050504    343.377897
PG15  21557.310686   5390.781540 -15186.382714    134.747882
PG16  -3751.439293 -19572.281498 -17663.848497   -347.521826
PG17 -16288.628264  12902.634181  17053.505030    714.688088
PG18  13544.176197  -6637.870633 -21859.809838   -569.917424
PG19  -6470.604180  14586.247418  20979.508380    450.099495
PG20   2531.649750  24228.873225 -10711.887792    384.963996
PG21 -20923.061314 -16246.834516   6146.158281    132.424146
PG22  -9646.808590  24652.476788   4039.759267     20.338522
PG23  15606.007362 -17234.740970 -12639.469679    170.907091
PG24  21179.344465  14147.601097   7827.157663   -442.262215
PG25  17118.304519  -8473.916208  18000.275343    490.547082
PG26   2304.540452 -25231.858579  -7457.778122    182.749165
PG27  -9676.232802 -13456.468790 -21121.206316     -9.648541
PG28    609.243902 -19252.608330  18269.209544   -154.490761
PG29  25939.310548  -4337.058371  -4141.757407   -605.501704
PG30  -6476.489489  15868.977318 -20093.674460   -423.552838
PG31  -7243.956050 -22796.092324  10892.601644   -227.938705
PG32  12333.396379 -14774.225821  18419.437146   -614.780105
PJ02 -26989.537321  31262.506627  -3937.084736     -2.628450
PJ03 -26434.802291  22165.608077  29339.553518     -0.214849
PJ04 -32800.947086  26177.927310     34.571898     50.753907
PJ07 -25407.394419  33648.618054    -50.585719      0.075818
PR01 -22517.391625  10696.717584   5381.247445     78.945756
PR02 -16405.675211  15502.020789 -11897.093722    -22.555595
PR03   -382.478046  12285.408207 -22307.542691     95.843457
PR04  15235.737833   2262.720665 -20292.956930    226.358719
PR05  22791.459600  -8767.824612  -7314.074303    127.981389
PR06  14750.942542 -16258.019293  12971.490981   -153.543754
PR07   -628.425636 -11862.434491  22613.382520     77.326037
PR08 -15510.730368  -2101.064973  20217.547299    -74.666194
PR09   5263.584140 -22040.360803  11807.196264    173.776204
PR10  -1747.604486 -25228.097026  -3016.216650   -132.152524
PR11  -8939.399513 -15047.049371 -18557.424531     32.160337
PR12 -10721.471181   5914.921810 -22360.814803     37.483386
PR13  -6440.959975  20386.279805 -13937.174985    -45.026647
PR14   2727.465661  24825.021313   5151.804007     26.179561
PR15   9348.495068  13682.296397  19402.976014     81.591147
PR16  10585.809388  -5673.278501  22510.554778     23.794364
PR17  11740.341884  15652.235305  16392.718145     66.679773
PR18  21435.479318  13711.140051   1294.793498    130.741003
PR19  20806.387884   6476.518391 -13255.362365   -268.345427
PR20   6320.552280  -8253.117358 -23284.098950   -109.349487
PR21 -11762.200136 -15701.303410 -16292.043609    -82.351029
PR22 -21404.573467 -13893.217966   -107.233406    111.402515
PR23 -19504.986419  -3590.553608  16041.123898   -114.070610
PR24  -5712.615606   9245.403620  23093.478642    -46.678530
EOF
